start=new Date('2023-01-18T00:00:00.000Z').valueOf();
sats=[{"OBJECT_TYPE":"PAYLOAD","PERIAPSIS":"546.311","CLASSIFICATION_TYPE":"U","FILE":"3753286","DECAY_DATE":null,"EPOCH":"2023-01-17T16:52:45.812928","MEAN_MOTION":"15.06398743","LAUNCH_DATE":"2020-06-04","INCLINATION":"53.0532","MEAN_ELEMENT_THEORY":"SGP4","EPHEMERIS_TYPE":"0","GP_ID":"223378535","TLE_LINE2":"2 45661  53.0532 175.6471 0001309  93.9910 266.1229 15.06398743145854","RA_OF_ASC_NODE":"175.6471","MEAN_ANOMALY":"266.1229","COUNTRY_CODE":"US","APOAPSIS":"548.124","CENTER_NAME":"EARTH","SEMIMAJOR_AXIS":"6925.352","TIME_SYSTEM":"UTC","REF_FRAME":"TEME","BSTAR":"0.00003604700000","TLE_LINE1":"1 45661U 20035E   23017.70330802  .00000256  00000-0  36047-4 0  9995","REV_AT_EPOCH":"14585","MEAN_MOTION_DOT":"0.00000256","SITE":"AFETR","ECCENTRICITY":"0.00013090","PERIOD":"95.592","MEAN_MOTION_DDOT":"0.0000000000000","RCS_SIZE":"LARGE","OBJECT_ID":"2020-035E","OBJECT_NAME":"STARLINK-1444","ELEMENT_SET_NO":"999","ARG_OF_PERICENTER":"93.9910","NORAD_CAT_ID":"45661"},{"EPHEMERIS_TYPE":"0","INCLINATION":"53.0535","MEAN_ELEMENT_THEORY":"SGP4","COUNTRY_CODE":"US","CENTER_NAME":"EARTH","APOAPSIS":"548.230","SEMIMAJOR_AXIS":"6925.359","TIME_SYSTEM":"UTC","GP_ID":"223379281","TLE_LINE2":"2 45662  53.0535 175.5845 0001453  87.4118 272.7038 15.06396722145856","RA_OF_ASC_NODE":"175.5845","MEAN_ANOMALY":"272.7038","MEAN_MOTION":"15.06396722","LAUNCH_DATE":"2020-06-04","OBJECT_TYPE":"PAYLOAD","CLASSIFICATION_TYPE":"U","PERIAPSIS":"546.217","FILE":"3753286","DECAY_DATE":null,"EPOCH":"2023-01-17T17:13:59.609856","OBJECT_NAME":"STARLINK-1445","ELEMENT_SET_NO":"999","MEAN_MOTION_DDOT":"0.0000000000000","RCS_SIZE":"LARGE","OBJECT_ID":"2020-035F","NORAD_CAT_ID":"45662","ARG_OF_PERICENTER":"87.4118","BSTAR":"0.00007309200000","TLE_LINE1":"1 45662U 20035F   23017.71805104  .00000807  00000-0  73092-4 0  9992","REV_AT_EPOCH":"14585","REF_FRAME":"TEME","PERIOD":"95.592","MEAN_MOTION_DOT":"0.00000807","SITE":"AFETR","ECCENTRICITY":"0.00014530"},{"ECCENTRICITY":"0.00013170","SITE":"AFETR","MEAN_MOTION_DOT":"-0.00000523","PERIOD":"95.593","REF_FRAME":"TEME","TLE_LINE1":"1 45663U 20035G   23017.72174244 -.00000523  00000-0 -16239-4 0  9995","BSTAR":"-0.00001623900000","REV_AT_EPOCH":"14585","ARG_OF_PERICENTER":"92.8455","NORAD_CAT_ID":"45663","RCS_SIZE":"LARGE","OBJECT_ID":"2020-035G","MEAN_MOTION_DDOT":"0.0000000000000","ELEMENT_SET_NO":"999","OBJECT_NAME":"STARLINK-1446","FILE":"3753286","EPOCH":"2023-01-17T17:19:18.546816","DECAY_DATE":null,"OBJECT_TYPE":"PAYLOAD","CLASSIFICATION_TYPE":"U","PERIAPSIS":"546.322","LAUNCH_DATE":"2020-06-04","MEAN_MOTION":"15.06393273","MEAN_ANOMALY":"267.2685","TLE_LINE2":"2 45663  53.0554 175.5498 0001317  92.8455 267.2685 15.06393273145850","GP_ID":"223378035","RA_OF_ASC_NODE":"175.5498","APOAPSIS":"548.146","CENTER_NAME":"EARTH","SEMIMAJOR_AXIS":"6925.369","TIME_SYSTEM":"UTC","COUNTRY_CODE":"US","INCLINATION":"53.0554","MEAN_ELEMENT_THEORY":"SGP4","EPHEMERIS_TYPE":"0"},{"SITE":"AFETR","ECCENTRICITY":"0.00010400","MEAN_MOTION_DOT":"0.00002147","PERIOD":"95.593","REF_FRAME":"TEME","REV_AT_EPOCH":"14584","BSTAR":"0.00016304000000","TLE_LINE1":"1 45665U 20035J   23017.68857030  .00002147  00000-0  16304-3 0  9997","ARG_OF_PERICENTER":"89.9908","NORAD_CAT_ID":"45665","OBJECT_ID":"2020-035J","RCS_SIZE":"LARGE","MEAN_MOTION_DDOT":"0.0000000000000","ELEMENT_SET_NO":"999","OBJECT_NAME":"STARLINK-1448","FILE":"3753286","EPOCH":"2023-01-17T16:31:32.473920","DECAY_DATE":null,"CLASSIFICATION_TYPE":"U","PERIAPSIS":"546.539","OBJECT_TYPE":"PAYLOAD","LAUNCH_DATE":"2020-06-04","MEAN_MOTION":"15.06385199","MEAN_ANOMALY":"270.1200","RA_OF_ASC_NODE":"175.7157","TLE_LINE2":"2 45665  53.0528 175.7157 0001040  89.9908 270.1200 15.06385199145843","GP_ID":"223378285","TIME_SYSTEM":"UTC","APOAPSIS":"547.979","CENTER_NAME":"EARTH","SEMIMAJOR_AXIS":"6925.394","COUNTRY_CODE":"US","MEAN_ELEMENT_THEORY":"SGP4","INCLINATION":"53.0528","EPHEMERIS_TYPE":"0"},{"MEAN_ANOMALY":"269.1981","RA_OF_ASC_NODE":"175.0724","TLE_LINE2":"2 45666  53.0526 175.0724 0001321  90.9159 269.1981 15.06388598145869","GP_ID":"223379036","TIME_SYSTEM":"UTC","SEMIMAJOR_AXIS":"6925.384","APOAPSIS":"548.163","CENTER_NAME":"EARTH","COUNTRY_CODE":"US","MEAN_ELEMENT_THEORY":"SGP4","INCLINATION":"53.0526","EPHEMERIS_TYPE":"0","FILE":"3753286","DECAY_DATE":null,"EPOCH":"2023-01-17T19:47:54.921408","PERIAPSIS":"546.334","CLASSIFICATION_TYPE":"U","OBJECT_TYPE":"PAYLOAD","LAUNCH_DATE":"2020-06-04","MEAN_MOTION":"15.06388598","ARG_OF_PERICENTER":"90.9159","NORAD_CAT_ID":"45666","RCS_SIZE":"LARGE","OBJECT_ID":"2020-035K","MEAN_MOTION_DDOT":"0.0000000000000","ELEMENT_SET_NO":"999","OBJECT_NAME":"STARLINK-1449","ECCENTRICITY":"0.00013210","SITE":"AFETR","MEAN_MOTION_DOT":"-0.00003123","PERIOD":"95.593","REF_FRAME":"TEME","REV_AT_EPOCH":"14586","TLE_LINE1":"1 45666U 20035K   23017.82494122 -.00003123  00000-0 -19089-3 0  9993","BSTAR":"-0.00019089000000"},{"REF_FRAME":"TEME","TLE_LINE1":"1 45667U 20035L   23017.69499961  .00000489  00000-0  51735-4 0  9990","BSTAR":"0.00005173500000","REV_AT_EPOCH":"14584","ECCENTRICITY":"0.00009940","SITE":"AFETR","MEAN_MOTION_DOT":"0.00000489","PERIOD":"95.593","OBJECT_ID":"2020-035L","RCS_SIZE":"LARGE","MEAN_MOTION_DDOT":"0.0000000000000","ELEMENT_SET_NO":"999","OBJECT_NAME":"STARLINK-1450","ARG_OF_PERICENTER":"87.4490","NORAD_CAT_ID":"45667","EPOCH":"2023-01-17T16:40:47.966304","FILE":"3753286","DECAY_DATE":null,"OBJECT_TYPE":"PAYLOAD","PERIAPSIS":"546.551","CLASSIFICATION_TYPE":"U","LAUNCH_DATE":"2020-06-04","MEAN_MOTION":"15.06391564","INCLINATION":"53.0535","MEAN_ELEMENT_THEORY":"SGP4","EPHEMERIS_TYPE":"0","MEAN_ANOMALY":"272.6613","TLE_LINE2":"2 45667  53.0535 175.7172 0000994  87.4490 272.6613 15.06391564145844","GP_ID":"223378781","RA_OF_ASC_NODE":"175.7172","APOAPSIS":"547.928","CENTER_NAME":"EARTH","SEMIMAJOR_AXIS":"6925.374","TIME_SYSTEM":"UTC","COUNTRY_CODE":"US"},{"LAUNCH_DATE":"2020-06-04","MEAN_MOTION":"15.06401645","DECAY_DATE":null,"FILE":"3753286","EPOCH":"2023-01-17T17:28:33.144096","OBJECT_TYPE":"PAYLOAD","PERIAPSIS":"546.380","CLASSIFICATION_TYPE":"U","APOAPSIS":"548.037","CENTER_NAME":"EARTH","SEMIMAJOR_AXIS":"6925.344","TIME_SYSTEM":"UTC","COUNTRY_CODE":"US","MEAN_ANOMALY":"273.5880","TLE_LINE2":"2 45668  53.0530 175.5357 0001196  86.5246 273.5880 15.06401645145867","GP_ID":"223377537","RA_OF_ASC_NODE":"175.5357","EPHEMERIS_TYPE":"0","INCLINATION":"53.0530","MEAN_ELEMENT_THEORY":"SGP4","PERIOD":"95.592","ECCENTRICITY":"0.00011960","SITE":"AFETR","MEAN_MOTION_DOT":"0.00002007","TLE_LINE1":"1 45668U 20035M   23017.72816139  .00002007  00000-0  15359-3 0  9994","BSTAR":"0.00015359000000","REV_AT_EPOCH":"14586","REF_FRAME":"TEME","NORAD_CAT_ID":"45668","ARG_OF_PERICENTER":"86.5246","ELEMENT_SET_NO":"999","OBJECT_NAME":"STARLINK-1451","RCS_SIZE":"LARGE","OBJECT_ID":"2020-035M","MEAN_MOTION_DDOT":"0.0000000000000"},{"OBJECT_ID":"2020-035N","RCS_SIZE":"LARGE","MEAN_MOTION_DDOT":"0.0000000000000","ELEMENT_SET_NO":"999","OBJECT_NAME":"STARLINK-1452","ARG_OF_PERICENTER":"90.8718","NORAD_CAT_ID":"45669","REF_FRAME":"TEME","REV_AT_EPOCH":"14581","BSTAR":"0.00002758900000","TLE_LINE1":"1 45669U 20035N   23017.44529467  .00000130  00000-0  27589-4 0  9993","ECCENTRICITY":"0.00012350","SITE":"AFETR","MEAN_MOTION_DOT":"0.00000130","PERIOD":"95.593","MEAN_ELEMENT_THEORY":"SGP4","INCLINATION":"53.0550","EPHEMERIS_TYPE":"0","MEAN_ANOMALY":"269.2412","RA_OF_ASC_NODE":"176.8037","TLE_LINE2":"2 45669  53.0550 176.8037 0001235  90.8718 269.2412 15.06392988145812","GP_ID":"223320426","TIME_SYSTEM":"UTC","CENTER_NAME":"EARTH","APOAPSIS":"548.090","SEMIMAJOR_AXIS":"6925.370","COUNTRY_CODE":"US","FILE":"3753023","DECAY_DATE":null,"EPOCH":"2023-01-17T10:41:13.459488","CLASSIFICATION_TYPE":"U","PERIAPSIS":"546.380","OBJECT_TYPE":"PAYLOAD","LAUNCH_DATE":"2020-06-04","MEAN_MOTION":"15.06392988"},{"OBJECT_TYPE":"PAYLOAD","PERIAPSIS":"546.303","CLASSIFICATION_TYPE":"U","EPOCH":"2023-01-17T18:26:59.172288","FILE":"3753286","DECAY_DATE":null,"MEAN_MOTION":"15.06397628","LAUNCH_DATE":"2020-06-04","INCLINATION":"53.0521","MEAN_ELEMENT_THEORY":"SGP4","EPHEMERIS_TYPE":"0","GP_ID":"223378536","TLE_LINE2":"2 45670  53.0521 145.3562 0001325  94.0794 266.0346 15.06397628146173","RA_OF_ASC_NODE":"145.3562","MEAN_ANOMALY":"266.0346","COUNTRY_CODE":"US","CENTER_NAME":"EARTH","APOAPSIS":"548.138","SEMIMAJOR_AXIS":"6925.356","TIME_SYSTEM":"UTC","REF_FRAME":"TEME","BSTAR":"0.00002249000000","TLE_LINE1":"1 45670U 20035P   23017.76874042  .00000054  00000-0  22490-4 0  9993","REV_AT_EPOCH":"14617","MEAN_MOTION_DOT":"0.00000054","SITE":"AFETR","ECCENTRICITY":"0.00013250","PERIOD":"95.592","MEAN_MOTION_DDOT":"0.0000000000000","RCS_SIZE":"LARGE","OBJECT_ID":"2020-035P","OBJECT_NAME":"STARLINK-1453","ELEMENT_SET_NO":"999","ARG_OF_PERICENTER":"94.0794","NORAD_CAT_ID":"45670"},{"APOAPSIS":"548.060","SEMIMAJOR_AXIS":"6925.362","CENTER_NAME":"EARTH","TIME_SYSTEM":"UTC","COUNTRY_CODE":"US","MEAN_ANOMALY":"267.8252","TLE_LINE2":"2 45671  53.0547 175.5935 0001204  92.2874 267.8252 15.06395731145847","GP_ID":"223379282","RA_OF_ASC_NODE":"175.5935","EPHEMERIS_TYPE":"0","INCLINATION":"53.0547","MEAN_ELEMENT_THEORY":"SGP4","LAUNCH_DATE":"2020-06-04","MEAN_MOTION":"15.06395731","EPOCH":"2023-01-17T17:08:41.233632","FILE":"3753286","DECAY_DATE":null,"OBJECT_TYPE":"PAYLOAD","PERIAPSIS":"546.393","CLASSIFICATION_TYPE":"U","NORAD_CAT_ID":"45671","ARG_OF_PERICENTER":"92.2874","ELEMENT_SET_NO":"999","OBJECT_NAME":"STARLINK-1454","RCS_SIZE":"LARGE","OBJECT_ID":"2020-035Q","MEAN_MOTION_DDOT":"0.0000000000000","PERIOD":"95.592","ECCENTRICITY":"0.00012040","SITE":"AFETR","MEAN_MOTION_DOT":"0.00000376","TLE_LINE1":"1 45671U 20035Q   23017.71436613  .00000376  00000-0  44156-4 0  9997","BSTAR":"0.00004415600000","REV_AT_EPOCH":"14584","REF_FRAME":"TEME"}];
